OBJECT_NAME,OBJECT_ID,EPOCH,MEAN_MOTION,ECCENTRICITY,INCLINATION,RA_OF_ASC_NODE,ARG_OF_PERICENTER,MEAN_ANOMALY,EPHEMERIS_TYPE,CLASSIFICATION_TYPE,NORAD_CAT_ID,ELEMENT_SET_NO,REV_AT_EPOCH,BSTAR,MEAN_MOTION_DOT,MEAN_MOTION_DDOT
ONEWEB-0158,2021-025N,2026-06-17T23:11:25.800576,13.13470974,.00015856,87.8963,320.0617,96.0575,264.0735,0,U,48054,999,25373,-.8365774E-5,.1E-6,0
ONEWEB-0157,2021-025P,2026-06-18T08:56:28.700160,13.13470233,.00021152,87.8959,319.9866,105.8463,254.2900,0,U,48055,999,25372,-.80107776E-3,-.28E-5,0
ONEWEB-0162,2021-025Q,2026-06-18T10:11:50.690400,13.13469337,.00019669,87.8959,319.9768,93.9581,266.1773,0,U,48056,999,25370,.18984035E-3,.82E-6,0
ONEWEB-0155,2021-025R,2026-06-18T10:21:47.053440,13.13469874,.00018278,87.8961,319.9716,102.5381,257.5953,0,U,48057,999,25384,-.17304028E-3,-.5E-6,0
ONEWEB-0149,2021-025S,2026-06-18T09:03:47.201760,13.13470563,.00020325,87.8961,319.9861,93.4106,266.7256,0,U,48058,999,25364,-.59253658E-3,-.204E-5,0
ONEWEB-0148,2021-025T,2026-06-18T15:28:56.413632,13.13470220,.00024089,87.8956,319.9397,92.1809,267.9596,0,U,48059,999,25380,.93865214E-3,.356E-5,0
ONEWEB-0160,2021-025U,2026-06-17T23:26:02.433120,13.13470636,.0001377,87.8955,320.0687,75.8150,284.3132,0,U,48060,999,25366,-.78335261E-3,-.273E-5,0
ONEWEB-0163,2021-025V,2026-06-18T15:31:21.795456,13.13471080,.00020043,87.8964,319.9300,104.1856,255.9496,0,U,48061,999,25387,.7973196E-3,.304E-5,0
ONEWEB-0159,2021-025W,2026-06-17T22:51:55.264608,13.13470148,.00019331,87.8964,320.0617,103.8539,256.2806,0,U,48062,999,25370,.70761862E-3,.271E-5,0
ONEWEB-0164,2021-025X,2026-06-17T22:25:06.425760,13.13470511,.00017863,87.8965,320.0719,96.1364,263.9968,0,U,48063,999,25368,.36584926E-3,.146E-5,0
ONEWEB-0167,2021-025Y,2026-06-18T15:32:34.972800,13.13468400,.00018017,87.8955,319.9394,118.3883,241.7428,0,U,48064,999,25376,.77302902E-3,.295E-5,0
ONEWEB-0166,2021-025Z,2026-06-18T08:46:43.120704,13.13459332,.00020086,87.8962,319.9667,96.0371,264.0987,0,U,48065,999,25380,-.32039849E-2,-.1157E-4,0
ONEWEB-0151,2021-025AA,2026-06-18T08:49:08.447232,13.13470458,.00017689,87.8956,319.9834,100.5157,259.6171,0,U,48066,999,25374,-.79255295E-3,-.277E-5,0
ONEWEB-0170,2021-025AB,2026-06-18T09:01:20.147232,13.13470433,.00013833,87.8958,319.9837,97.7556,262.3730,0,U,48067,999,25370,-.67315487E-3,-.233E-5,0
ONEWEB-0168,2021-025AC,2026-06-17T23:30:55.083744,13.13470050,.00019873,87.8964,320.0623,100.6981,259.4372,0,U,48068,999,25366,-.90646439E-3,-.318E-5,0
ONEWEB-0173,2021-025AD,2026-06-18T10:16:54.521184,13.13470008,.00019793,87.8959,319.9747,107.9206,252.2139,0,U,48069,999,25396,-.1754374E-5,.12E-6,0
ONEWEB-0171,2021-025AE,2026-06-18T09:20:50.570016,13.13470792,.00017672,87.8954,319.9907,98.7094,261.4235,0,U,48070,999,25377,.36192245E-3,.145E-5,0
ONEWEB-0172,2021-025AF,2026-06-18T08:51:34.497792,13.13469589,.0001802,87.8961,319.9848,102.7235,257.4096,0,U,48071,999,25466,-.12301121E-2,-.436E-5,0
ONEWEB-0174,2021-025AG,2026-06-18T10:14:28.773024,13.13470412,.00019957,87.8959,319.9723,96.3807,263.7550,0,U,48072,999,25399,.8302502E-4,.43E-6,0
ONEWEB-0175,2021-025AH,2026-06-17T22:10:28.925760,13.13470836,.00015519,87.8965,320.0570,103.8013,256.3289,0,U,48073,999,25358,-.41760144E-3,-.14E-5,0
ONEWEB-0177,2021-025AJ,2026-06-18T09:25:42.755808,13.13471362,.00020505,87.8961,319.9820,100.4411,259.6949,0,U,48074,999,25383,.61025604E-3,.236E-5,0
ONEWEB-0178,2021-025AK,2026-06-17T22:54:33.215040,13.13467976,.0001739,87.8948,320.0818,105.0629,255.0692,0,U,48075,999,25382,.80979908E-3,.308E-5,0
ONEWEB-0108,2021-025AL,2026-06-18T08:54:01.433952,13.13470290,.00018962,87.8964,319.9778,90.2561,269.8785,0,U,48076,999,25380,-.7473544E-3,-.26E-5,0
ONEWEB-0169,2021-025AM,2026-06-18T09:40:20.909856,13.13470030,.00019432,87.8957,319.9792,95.9271,264.2080,0,U,48077,999,25246,.79482256E-3,.303E-5,0
ONEWEB-0176,2021-031A,2026-06-18T15:00:19.921248,13.14503780,.00019119,87.8966,289.4125,104.2714,255.8628,0,U,48210,999,24850,.83031669E-3,.321E-5,0
ONEWEB-0184,2021-031B,2026-06-18T14:21:30.228192,13.14503001,.000162,87.8975,289.4187,126.2909,233.8371,0,U,48211,999,24847,-.44428164E-3,-.152E-5,0
ONEWEB-0179,2021-031C,2026-06-18T13:39:23.541408,14.25524217,.02187385,87.8991,286.6397,252.6476,105.0688,0,U,48212,999,24924,.55523551E-4,.185E-5,0
ONEWEB-0180,2021-031D,2026-06-18T14:26:04.472160,13.14503494,.00022458,87.8973,289.4143,110.2584,249.8788,0,U,48213,999,24840,-.14282433E-3,-.4E-6,0
ONEWEB-0218,2021-031E,2026-06-18T14:58:03.155232,13.14501350,.00019777,87.8972,289.4088,127.3137,232.8173,0,U,48214,999,24856,.10471618E-2,.401E-5,0
ONEWEB-0209,2021-031F,2026-06-18T14:42:03.093984,13.14501498,.00021489,87.8966,289.4280,103.6987,256.4382,0,U,48215,999,24856,.24450387E-3,.103E-5,0
