[
  {
    "name": "ONEWEB-0158",
    "noradId": "48054",
    "line1": "1 48054U 21025N   26168.96627084  .00000010  00000+0 -83658-5 0  9992",
    "line2": "2 48054  87.8963 320.0617 0001585  96.0575 264.0735 13.13470974253730"
  },
  {
    "name": "ONEWEB-0157",
    "noradId": "48055",
    "line1": "1 48055U 21025P   26169.37255440 -.00000280  00000+0 -80108-3 0  9997",
    "line2": "2 48055  87.8959 319.9866 0002115 105.8463 254.2900 13.13470233253726"
  },
  {
    "name": "ONEWEB-0162",
    "noradId": "48056",
    "line1": "1 48056U 21025Q   26169.42489225  .00000082  00000+0  18984-3 0  9995",
    "line2": "2 48056  87.8959 319.9768 0001966  93.9581 266.1773 13.13469337253700"
  },
  {
    "name": "ONEWEB-0155",
    "noradId": "48057",
    "line1": "1 48057U 21025R   26169.43179460 -.00000050  00000+0 -17304-3 0  9996",
    "line2": "2 48057  87.8961 319.9716 0001827 102.5381 257.5953 13.13469874253843"
  },
  {
    "name": "ONEWEB-0149",
    "noradId": "48058",
    "line1": "1 48058U 21025S   26169.37762965 -.00000204  00000+0 -59254-3 0  9999",
    "line2": "2 48058  87.8961 319.9861 0002032  93.4106 266.7256 13.13470563253640"
  },
  {
    "name": "ONEWEB-0148",
    "noradId": "48059",
    "line1": "1 48059U 21025T   26169.64509738  .00000356  00000+0  93865-3 0  9999",
    "line2": "2 48059  87.8956 319.9397 0002408  92.1809 267.9596 13.13470220253800"
  },
  {
    "name": "ONEWEB-0160",
    "noradId": "48060",
    "line1": "1 48060U 21025U   26168.97641705 -.00000273  00000+0 -78335-3 0  9992",
    "line2": "2 48060  87.8955 320.0687 0001377  75.8150 284.3132 13.13470636253661"
  },
  {
    "name": "ONEWEB-0163",
    "noradId": "48061",
    "line1": "1 48061U 21025V   26169.64678004  .00000304  00000+0  79732-3 0  9995",
    "line2": "2 48061  87.8964 319.9300 0002004 104.1856 255.9496 13.13471080253872"
  },
  {
    "name": "ONEWEB-0159",
    "noradId": "48062",
    "line1": "1 48062U 21025W   26168.95272297  .00000271  00000+0  70762-3 0  9990",
    "line2": "2 48062  87.8964 320.0617 0001933 103.8539 256.2806 13.13470148253706"
  },
  {
    "name": "ONEWEB-0164",
    "noradId": "48063",
    "line1": "1 48063U 21025X   26168.93410215  .00000146  00000+0  36585-3 0  9999",
    "line2": "2 48063  87.8965 320.0719 0001786  96.1364 263.9968 13.13470511253682"
  },
  {
    "name": "ONEWEB-0167",
    "noradId": "48064",
    "line1": "1 48064U 21025Y   26169.64762700  .00000295  00000+0  77303-3 0  9996",
    "line2": "2 48064  87.8955 319.9394 0001801 118.3883 241.7428 13.13468400253767"
  },
  {
    "name": "ONEWEB-0166",
    "noradId": "48065",
    "line1": "1 48065U 21025Z   26169.36577686 -.00001157  00000+0 -32040-2 0  9991",
    "line2": "2 48065  87.8962 319.9667 0002008  96.0371 264.0987 13.13459332253800"
  },
  {
    "name": "ONEWEB-0151",
    "noradId": "48066",
    "line1": "1 48066U 21025AA  26169.36745888 -.00000277  00000+0 -79255-3 0  9995",
    "line2": "2 48066  87.8956 319.9834 0001768 100.5157 259.6171 13.13470458253745"
  },
  {
    "name": "ONEWEB-0170",
    "noradId": "48067",
    "line1": "1 48067U 21025AB  26169.37592763 -.00000233  00000+0 -67315-3 0  9995",
    "line2": "2 48067  87.8958 319.9837 0001383  97.7556 262.3730 13.13470433253705"
  },
  {
    "name": "ONEWEB-0168",
    "noradId": "48068",
    "line1": "1 48068U 21025AC  26168.97980421 -.00000318  00000+0 -90646-3 0  9990",
    "line2": "2 48068  87.8964 320.0623 0001987 100.6981 259.4372 13.13470050253664"
  },
  {
    "name": "ONEWEB-0173",
    "noradId": "48069",
    "line1": "1 48069U 21025AD  26169.42840881  .00000012  00000+0 -17544-5 0  9995",
    "line2": "2 48069  87.8959 319.9747 0001979 107.9206 252.2139 13.13470008253962"
  },
  {
    "name": "ONEWEB-0171",
    "noradId": "48070",
    "line1": "1 48070U 21025AE  26169.38947419  .00000145  00000+0  36192-3 0  9991",
    "line2": "2 48070  87.8954 319.9907 0001767  98.7094 261.4235 13.13470792253772"
  },
  {
    "name": "ONEWEB-0172",
    "noradId": "48071",
    "line1": "1 48071U 21025AF  26169.36914928 -.00000436  00000+0 -12301-2 0  9999",
    "line2": "2 48071  87.8961 319.9848 0001802 102.7235 257.4096 13.13469589254669"
  },
  {
    "name": "ONEWEB-0174",
    "noradId": "48072",
    "line1": "1 48072U 21025AG  26169.42672191  .00000043  00000+0  83025-4 0  9995",
    "line2": "2 48072  87.8959 319.9723 0001995  96.3807 263.7550 13.13470412253992"
  },
  {
    "name": "ONEWEB-0175",
    "noradId": "48073",
    "line1": "1 48073U 21025AH  26168.92394590 -.00000140  00000+0 -41760-3 0  9993",
    "line2": "2 48073  87.8965 320.0570 0001551 103.8013 256.3289 13.13470836253586"
  },
  {
    "name": "ONEWEB-0177",
    "noradId": "48074",
    "line1": "1 48074U 21025AJ  26169.39285597  .00000236  00000+0  61026-3 0  9993",
    "line2": "2 48074  87.8961 319.9820 0002050 100.4411 259.6949 13.13471362253830"
  },
  {
    "name": "ONEWEB-0178",
    "noradId": "48075",
    "line1": "1 48075U 21025AK  26168.95455110  .00000308  00000+0  80980-3 0  9995",
    "line2": "2 48075  87.8948 320.0818 0001739 105.0629 255.0692 13.13467976253821"
  },
  {
    "name": "ONEWEB-0108",
    "noradId": "48076",
    "line1": "1 48076U 21025AL  26169.37084993 -.00000260  00000+0 -74735-3 0  9990",
    "line2": "2 48076  87.8964 319.9778 0001896  90.2561 269.8785 13.13470290253803"
  },
  {
    "name": "ONEWEB-0169",
    "noradId": "48077",
    "line1": "1 48077U 21025AM  26169.40301979  .00000303  00000+0  79482-3 0  9991",
    "line2": "2 48077  87.8957 319.9792 0001943  95.9271 264.2080 13.13470030252465"
  },
  {
    "name": "ONEWEB-0176",
    "noradId": "48210",
    "line1": "1 48210U 21031A   26169.62523057  .00000321  00000+0  83032-3 0  9990",
    "line2": "2 48210  87.8966 289.4125 0001911 104.2714 255.8628 13.14503780248500"
  },
  {
    "name": "ONEWEB-0184",
    "noradId": "48211",
    "line1": "1 48211U 21031B   26169.59826653 -.00000152  00000+0 -44428-3 0  9995",
    "line2": "2 48211  87.8975 289.4187 0001620 126.2909 233.8371 13.14503001248479"
  },
  {
    "name": "ONEWEB-0179",
    "noradId": "48212",
    "line1": "1 48212U 21031C   26169.56902247  .00000185  00000+0  55524-4 0  9991",
    "line2": "2 48212  87.8991 286.6397 0218738 252.6476 105.0688 14.25524217249245"
  },
  {
    "name": "ONEWEB-0180",
    "noradId": "48213",
    "line1": "1 48213U 21031D   26169.60144065 -.00000040  00000+0 -14282-3 0  9990",
    "line2": "2 48213  87.8973 289.4143 0002245 110.2584 249.8788 13.14503494248405"
  },
  {
    "name": "ONEWEB-0218",
    "noradId": "48214",
    "line1": "1 48214U 21031E   26169.62364763  .00000401  00000+0  10472-2 0  9997",
    "line2": "2 48214  87.8972 289.4088 0001977 127.3137 232.8173 13.14501350248563"
  },
  {
    "name": "ONEWEB-0209",
    "noradId": "48215",
    "line1": "1 48215U 21031F   26169.61253581  .00000103  00000+0  24450-3 0  9993",
    "line2": "2 48215  87.8966 289.4280 0002148 103.6987 256.4382 13.14501498248569"
  }
]